IRIDIUM 33              
1 24946U 97051C   26061.96250587  .00000358  00000+0  11868-3 0  9996
2 24946  86.3869  34.5217 0006530 327.1315  32.9474 14.35096245489857
IRIDIUM 33 DEB          
1 33773U 97051L   26061.92644454  .00001365  00000+0  39807-3 0  9992
2 33773  86.4025  26.5874 0008899 245.0637 114.9639 14.43459783895040
IRIDIUM 33 DEB          
1 33775U 97051N   26061.88133093  .00001825  00000+0  55339-3 0  9990
2 33775  86.3666  15.3245 0010808 259.5527 161.0571 14.41730195892953
IRIDIUM 33 DEB          
1 33776U 97051P   26061.95034395  .00001007  00000+0  32387-3 0  9994
2 33776  86.4012  47.0590 0012548 299.9093 123.4440 14.38390426892350
IRIDIUM 33 DEB          
1 33777U 97051Q   26061.90128640  .00003595  00000+0  80782-3 0  9993
2 33777  86.3831   0.3137 0007217   9.1547 350.9792 14.56275283897007
IRIDIUM 33 DEB          
1 33850U 97051T   26062.19173681  .00001741  00000+0  51990-3 0  9992
2 33850  86.3467 355.5855 0008883 268.4184 147.6446 14.42462143893127
IRIDIUM 33 DEB          
1 33853U 97051W   26062.17399609  .00002835  00000+0  15960-2 0  9994
2 33853  86.0007 314.5454 0210806 350.1076 163.8842 13.99548029864707
IRIDIUM 33 DEB          
1 33860U 97051AD  26061.81373201  .00010559  00000+0  17989-2 0  9997
2 33860  86.3874 351.7581 0011709  65.6969 347.8927 14.68906635898976
IRIDIUM 33 DEB          
1 33862U 97051AF  26061.88162367  .00012550  00000+0  19727-2 0  9990
2 33862  86.4130   2.1313 0049898 146.2552 277.4073 14.71628803900019
IRIDIUM 33 DEB          
1 33866U 97051AK  26061.93542804  .00003552  00000+0  13980-2 0  9995
2 33866  86.2977  59.0777 0110926 264.6589 121.4213 14.25689575879539
IRIDIUM 33 DEB          
1 33870U 97051AP  26062.16326566  .00003571  00000+0  98844-3 0  9995
2 33870  86.3768  23.7603 0018271 278.3630 140.2398 14.46352256892992
IRIDIUM 33 DEB          
1 33881U 97051BA  26062.03419969  .00017218  00000+0  36059-2 0  9995
2 33881  86.3809  71.7699 0052936 265.4311 148.4558 14.58772630886702
IRIDIUM 33 DEB          
1 33884U 97051BD  26061.78490568  .00017878  00000+0  23525-2 0  9999
2 33884  86.3721 333.6322 0014055  38.0555  29.8593 14.80014514900304
IRIDIUM 33 DEB          
1 33886U 97051BF  26061.93525147  .00000724  00000+0  24159-3 0  9997
2 33886  86.3832  33.4483 0013764 353.6653  59.8215 14.36157819892034
IRIDIUM 33 DEB          
1 33887U 97051BG  26062.18227348  .00000517  00000+0  16662-3 0  9998
2 33887  86.3085 328.7482 0005905 358.3930 164.6148 14.37317174893205
IRIDIUM 33 DEB          
1 33953U 97051BN  26061.92366691  .00006240  00000+0  14024-2 0  9996
2 33953  86.3877  18.9424 0015166 179.5044 244.0785 14.56303742894704
