[{"OBJECT_NAME":"IRIDIUM 33","OBJECT_ID":"1997-051C","EPOCH":"2026-03-02T23:06:00.507168","MEAN_MOTION":14.35096245,"ECCENTRICITY":0.000653,"INCLINATION":86.3869,"RA_OF_ASC_NODE":34.5217,"ARG_OF_PERICENTER":327.1315,"MEAN_ANOMALY":32.9474,"EPHEMERIS_TYPE":0,"CLASSIFICATION_TYPE":"U","NORAD_CAT_ID":24946,"ELEMENT_SET_NO":999,"REV_AT_EPOCH":48985,"BSTAR":0.00011868,"MEAN_MOTION_DOT":3.58e-6,"MEAN_MOTION_DDOT":0},{"OBJECT_NAME":"IRIDIUM 33 DEB","OBJECT_ID":"1997-051L","EPOCH":"2026-03-02T22:14:04.808256","MEAN_MOTION":14.43459783,"ECCENTRICITY":0.0008899,"INCLINATION":86.4025,"RA_OF_ASC_NODE":26.5874,"ARG_OF_PERICENTER":245.0637,"MEAN_ANOMALY":114.9639,"EPHEMERIS_TYPE":0,"CLASSIFICATION_TYPE":"U","NORAD_CAT_ID":33773,"ELEMENT_SET_NO":999,"REV_AT_EPOCH":89504,"BSTAR":0.00039807,"MEAN_MOTION_DOT":1.365e-5,"MEAN_MOTION_DDOT":0},{"OBJECT_NAME":"IRIDIUM 33 DEB","OBJECT_ID":"1997-051N","EPOCH":"2026-03-02T21:09:06.992352","MEAN_MOTION":14.41730195,"ECCENTRICITY":0.0010808,"INCLINATION":86.3666,"RA_OF_ASC_NODE":15.3245,"ARG_OF_PERICENTER":259.5527,"MEAN_ANOMALY":161.0571,"EPHEMERIS_TYPE":0,"CLASSIFICATION_TYPE":"U","NORAD_CAT_ID":33775,"ELEMENT_SET_NO":999,"REV_AT_EPOCH":89295,"BSTAR":0.00055339,"MEAN_MOTION_DOT":1.825e-5,"MEAN_MOTION_DDOT":0},{"OBJECT_NAME":"IRIDIUM 33 DEB","OBJECT_ID":"1997-051P","EPOCH":"2026-03-02T22:48:29.717280","MEAN_MOTION":14.38390426,"ECCENTRICITY":0.0012548,"INCLINATION":86.4012,"RA_OF_ASC_NODE":47.059,"ARG_OF_PERICENTER":299.9093,"MEAN_ANOMALY":123.444,"EPHEMERIS_TYPE":0,"CLASSIFICATION_TYPE":"U","NORAD_CAT_ID":33776,"ELEMENT_SET_NO":999,"REV_AT_EPOCH":89235,"BSTAR":0.00032387,"MEAN_MOTION_DOT":1.007e-5,"MEAN_MOTION_DDOT":0},{"OBJECT_NAME":"IRIDIUM 33 DEB","OBJECT_ID":"1997-051Q","EPOCH":"2026-03-02T21:37:51.144960","MEAN_MOTION":14.56275283,"ECCENTRICITY":0.0007217,"INCLINATION":86.3831,"RA_OF_ASC_NODE":0.3137,"ARG_OF_PERICENTER":9.1547,"MEAN_ANOMALY":350.9792,"EPHEMERIS_TYPE":0,"CLASSIFICATION_TYPE":"U","NORAD_CAT_ID":33777,"ELEMENT_SET_NO":999,"REV_AT_EPOCH":89700,"BSTAR":0.00080782,"MEAN_MOTION_DOT":3.595e-5,"MEAN_MOTION_DDOT":0},{"OBJECT_NAME":"IRIDIUM 33 DEB","OBJECT_ID":"1997-051T","EPOCH":"2026-03-03T04:36:06.060384","MEAN_MOTION":14.42462143,"ECCENTRICITY":0.0008883,"INCLINATION":86.3467,"RA_OF_ASC_NODE":355.5855,"ARG_OF_PERICENTER":268.4184,"MEAN_ANOMALY":147.6446,"EPHEMERIS_TYPE":0,"CLASSIFICATION_TYPE":"U","NORAD_CAT_ID":33850,"ELEMENT_SET_NO":999,"REV_AT_EPOCH":89312,"BSTAR":0.0005199,"MEAN_MOTION_DOT":1.741e-5,"MEAN_MOTION_DDOT":0},{"OBJECT_NAME":"IRIDIUM 33 DEB","OBJECT_ID":"1997-051W","EPOCH":"2026-03-03T04:10:33.262176","MEAN_MOTION":13.99548029,"ECCENTRICITY":0.0210806,"INCLINATION":86.0007,"RA_OF_ASC_NODE":314.5454,"ARG_OF_PERICENTER":350.1076,"MEAN_ANOMALY":163.8842,"EPHEMERIS_TYPE":0,"CLASSIFICATION_TYPE":"U","NORAD_CAT_ID":33853,"ELEMENT_SET_NO":999,"REV_AT_EPOCH":86470,"BSTAR":0.001596,"MEAN_MOTION_DOT":2.835e-5,"MEAN_MOTION_DDOT":0},{"OBJECT_NAME":"IRIDIUM 33 DEB","OBJECT_ID":"1997-051AD","EPOCH":"2026-03-02T19:31:46.445664","MEAN_MOTION":14.68906635,"ECCENTRICITY":0.0011709,"INCLINATION":86.3874,"RA_OF_ASC_NODE":351.7581,"ARG_OF_PERICENTER":65.6969,"MEAN_ANOMALY":347.8927,"EPHEMERIS_TYPE":0,"CLASSIFICATION_TYPE":"U","NORAD_CAT_ID":33860,"ELEMENT_SET_NO":999,"REV_AT_EPOCH":89897,"BSTAR":0.0017988953,"MEAN_MOTION_DOT":0.00010559,"MEAN_MOTION_DDOT":0},{"OBJECT_NAME":"IRIDIUM 33 DEB","OBJECT_ID":"1997-051AF","EPOCH":"2026-03-02T21:09:32.285088","MEAN_MOTION":14.71628803,"ECCENTRICITY":0.0049898,"INCLINATION":86.413,"RA_OF_ASC_NODE":2.1313,"ARG_OF_PERICENTER":146.2552,"MEAN_ANOMALY":277.4073,"EPHEMERIS_TYPE":0,"CLASSIFICATION_TYPE":"U","NORAD_CAT_ID":33862,"ELEMENT_SET_NO":999,"REV_AT_EPOCH":90001,"BSTAR":0.0019727,"MEAN_MOTION_DOT":0.0001255,"MEAN_MOTION_DDOT":0},{"OBJECT_NAME":"IRIDIUM 33 DEB","OBJECT_ID":"1997-051AK","EPOCH":"2026-03-02T22:27:00.982656","MEAN_MOTION":14.25689575,"ECCENTRICITY":0.0110926,"INCLINATION":86.2977,"RA_OF_ASC_NODE":59.0777,"ARG_OF_PERICENTER":264.6589,"MEAN_ANOMALY":121.4213,"EPHEMERIS_TYPE":0,"CLASSIFICATION_TYPE":"U","NORAD_CAT_ID":33866,"ELEMENT_SET_NO":999,"REV_AT_EPOCH":87953,"BSTAR":0.001398,"MEAN_MOTION_DOT":3.552e-5,"MEAN_MOTION_DDOT":0},{"OBJECT_NAME":"IRIDIUM 33 DEB","OBJECT_ID":"1997-051AP","EPOCH":"2026-03-03T03:55:06.153024","MEAN_MOTION":14.46352256,"ECCENTRICITY":0.0018271,"INCLINATION":86.3768,"RA_OF_ASC_NODE":23.7603,"ARG_OF_PERICENTER":278.363,"MEAN_ANOMALY":140.2398,"EPHEMERIS_TYPE":0,"CLASSIFICATION_TYPE":"U","NORAD_CAT_ID":33870,"ELEMENT_SET_NO":999,"REV_AT_EPOCH":89299,"BSTAR":0.00098844,"MEAN_MOTION_DOT":3.571e-5,"MEAN_MOTION_DDOT":0},{"OBJECT_NAME":"IRIDIUM 33 DEB","OBJECT_ID":"1997-051BA","EPOCH":"2026-03-03T00:49:14.853216","MEAN_MOTION":14.5877263,"ECCENTRICITY":0.0052936,"INCLINATION":86.3809,"RA_OF_ASC_NODE":71.7699,"ARG_OF_PERICENTER":265.4311,"MEAN_ANOMALY":148.4558,"EPHEMERIS_TYPE":0,"CLASSIFICATION_TYPE":"U","NORAD_CAT_ID":33881,"ELEMENT_SET_NO":999,"REV_AT_EPOCH":88670,"BSTAR":0.0036059,"MEAN_MOTION_DOT":0.00017218,"MEAN_MOTION_DDOT":0},{"OBJECT_NAME":"IRIDIUM 33 DEB","OBJECT_ID":"1997-051BD","EPOCH":"2026-03-02T18:50:15.850752","MEAN_MOTION":14.80014514,"ECCENTRICITY":0.00140559,"INCLINATION":86.3721,"RA_OF_ASC_NODE":333.6322,"ARG_OF_PERICENTER":38.0555,"MEAN_ANOMALY":29.8593,"EPHEMERIS_TYPE":0,"CLASSIFICATION_TYPE":"U","NORAD_CAT_ID":33884,"ELEMENT_SET_NO":999,"REV_AT_EPOCH":90030,"BSTAR":0.0023525362,"MEAN_MOTION_DOT":0.00017878,"MEAN_MOTION_DDOT":0},{"OBJECT_NAME":"IRIDIUM 33 DEB","OBJECT_ID":"1997-051BF","EPOCH":"2026-03-02T22:26:45.727008","MEAN_MOTION":14.36157819,"ECCENTRICITY":0.0013764,"INCLINATION":86.3832,"RA_OF_ASC_NODE":33.4483,"ARG_OF_PERICENTER":353.6653,"MEAN_ANOMALY":59.8215,"EPHEMERIS_TYPE":0,"CLASSIFICATION_TYPE":"U","NORAD_CAT_ID":33886,"ELEMENT_SET_NO":999,"REV_AT_EPOCH":89203,"BSTAR":0.00024159,"MEAN_MOTION_DOT":7.24e-6,"MEAN_MOTION_DDOT":0},{"OBJECT_NAME":"IRIDIUM 33 DEB","OBJECT_ID":"1997-051BG","EPOCH":"2026-03-03T04:22:28.428672","MEAN_MOTION":14.37317174,"ECCENTRICITY":0.0005905,"INCLINATION":86.3085,"RA_OF_ASC_NODE":328.7482,"ARG_OF_PERICENTER":358.393,"MEAN_ANOMALY":164.6148,"EPHEMERIS_TYPE":0,"CLASSIFICATION_TYPE":"U","NORAD_CAT_ID":33887,"ELEMENT_SET_NO":999,"REV_AT_EPOCH":89320,"BSTAR":0.00016662,"MEAN_MOTION_DOT":5.17e-6,"MEAN_MOTION_DDOT":0},{"OBJECT_NAME":"IRIDIUM 33 DEB","OBJECT_ID":"1997-051BN","EPOCH":"2026-03-02T22:10:04.821024","MEAN_MOTION":14.56303742,"ECCENTRICITY":0.0015166,"INCLINATION":86.3877,"RA_OF_ASC_NODE":18.9424,"ARG_OF_PERICENTER":179.5044,"MEAN_ANOMALY":244.0785,"EPHEMERIS_TYPE":0,"CLASSIFICATION_TYPE":"U","NORAD_CAT_ID":33953,"ELEMENT_SET_NO":999,"REV_AT_EPOCH":89470,"BSTAR":0.0014024,"MEAN_MOTION_DOT":6.24e-5,"MEAN_MOTION_DDOT":0}]
